CAS-2T & KS-1Q          
1 41847U 16066G   20142.14069136  .00000018  00000-0  13937-4 0  9998
2 41847  98.6562 192.3734 0364785 310.4536  46.5364 14.38063691185492
NAYIF-1 (EO-88)         
1 42017U 17008BX  20141.75470061  .00001198  00000-0  48754-4 0  9999
2 42017  97.3612 209.7196 0007812  67.6768 292.5298 15.26427756181323
MAX VALIER SAT          
1 42778U 17036P   20141.67448844  .00000780  00000-0  36460-4 0  9996
2 42778  97.3070 196.0756 0013918 116.9499 243.3161 15.22573609161504
RADFXSAT (FOX-1B)       
1 43017U 17073E   20141.71750101  .00000313  00000-0  29452-4 0  9996
2 43017  97.7244  55.0245 0257926 140.4771 221.5569 14.78907395135064
FOX-1D (AO-92)          
1 43137U 18004AC  20141.71228306  .00000808  00000-0  36217-4 0  9997
2 43137  97.4467 213.0595 0010128 144.9428 215.2477 15.24074117130819
DIWATA-2B               
1 43678U 18084H   20142.30601566  .00000421  00000-0  47624-4 0  9999
2 43678  97.8795 260.7164 0008461 266.3220  93.7035 14.91631773 84978
ES'HAIL 2               
1 43700U 18090A   20141.80813238  .00000154  00000-0  00000+0 0  9992
2 43700   0.0120 280.6503 0001135 163.0282 112.0092  1.00276090  5673
FOX-1CLIFF (AO-95)      
1 43770U 18099N   20141.73178912  .00000324  00000-0  34895-4 0  9996
2 43770  97.7065 213.5934 0013106 291.4852  68.4971 14.94971680 79770
ITASAT 1                
1 43786U 18099AE  20142.27035165  .00000418  00000-0  43067-4 0  9990
2 43786  97.7081 214.5226 0013683 282.3662  77.6027 14.95313568 79879
JY1SAT (JO-97)          
1 43803U 18099AX  20141.75279429  .00000663  00000-0  65026-4 0  9996
2 43803  97.7044 213.8391 0013492 285.0317  74.9411 14.95489334 79791
PSAT2 (NO-104)          
1 44354U 19036R   20141.50716814  .00006213  00000-0  88249-4 0  9996
2 44354  28.5294 204.0894 0365617  12.7025 348.2501 15.03157706 49601
BRICSAT2 (NO-103)       
1 44355U 19036S   20141.81039175  .00011629  00000-0  16146-3 0  9992
2 44355  28.5287 194.8439 0345787  27.7624 334.0978 15.08206385 49730
JAISAT-1                
1 44419U 19038F   20141.64160448  .00000634  00000-0  39804-4 0  9995
2 44419  97.5365 103.5682 0020318 223.5125 136.4504 15.12742985 48399
DUCHIFAT-3              
1 44854U 19089C   20142.38483000  .00000275  00000-0  28615-4 0  9997
2 44854  36.9660 258.3189 0008023 214.1951 145.8285 14.99052279 24231
RS-44 & BREEZE-KM R/B   
1 44909U 19096E   20141.91607245  .00000009  00000-0  00000-0 0  9992
2 44909  82.5231  13.6147 0216307 291.0892  66.7212 12.79707184 18662
ORBITAL FACTORY 2 (OF-2)
1 45113U 19071C   20141.71905586  .00001419  00000-0  55023-4 0  9995
2 45113  51.6430 137.5153 0012836 319.8767  40.1266 15.33252392 16877
HUSKYSAT-1              
1 45119U 19071J   20141.70146481  .00000940  00000-0  40114-4 0  9994
2 45119  51.6427 137.3985 0012087 316.0162  43.9857 15.33479136 16869
